{"type": "FeatureCollection", "features": [ {"type": "Feature", "properties": {"norad_id": 34784, "name": "COSMOS 2251 DEB", "group": "cosmos-2251-debris", "lat": 64.13153591728667, "lon": 112.88031832384826, "alt_km": 653.3543591385423, "timestamp": "2025-12-10T05:46:14.221828+00:00", "meta": {"OBJECT_NAME": "COSMOS 2251 DEB", "OBJECT_ID": "1993-036AAM", "EPOCH": "2025-12-09T09:32:34.369728", "MEAN_MOTION": 14.60755822, "ECCENTRICITY": 0.00495196, "INCLINATION": 74.0076, "RA_OF_ASC_NODE": 330.7528, "ARG_OF_PERICENTER": 141.0713, "MEAN_ANOMALY": 219.4036, "EPHEMERIS_TYPE": 0, "CLASSIFICATION_TYPE": "U", "NORAD_CAT_ID": 34784, "ELEMENT_SET_NO": 999, "REV_AT_EPOCH": 88486, "BSTAR": 0.00077015634, "MEAN_MOTION_DOT": 3.794e-05, "MEAN_MOTION_DDOT": 0}, "tle": {"line1": "1 34784U 93036AAM 25343.39762002  .00003794  00000+0  77016-3 0  9999", "line2": "2 34784  74.0076 330.7528 0049519 141.0713 219.4036 14.60755822884864"}}, "geometry": {"type": "Point", "coordinates": [112.88031832384826, 64.13153591728667]}}, {"type": "Feature", "properties": {"norad_id": 34790, "name": "COSMOS 2251 DEB", "group": "cosmos-2251-debris", "lat": -20.118552951502103, "lon": 74.21810619778668, "alt_km": 838.0998187590994, "timestamp": "2025-12-10T05:46:14.221838+00:00", "meta": {"OBJECT_NAME": "COSMOS 2251 DEB", "OBJECT_ID": "1993-036AAT", "EPOCH": "2025-12-09T04:18:49.662144", "MEAN_MOTION": 14.24610447, "ECCENTRICITY": 0.01007438, "INCLINATION": 74.0552, "RA_OF_ASC_NODE": 250.1156, "ARG_OF_PERICENTER": 312.5017, "MEAN_ANOMALY": 211.6898, "EPHEMERIS_TYPE": 0, "CLASSIFICATION_TYPE": "U", "NORAD_CAT_ID": 34790, "ELEMENT_SET_NO": 999, "REV_AT_EPOCH": 86522, "BSTAR": 0.001032802, "MEAN_MOTION_DOT": 2.504e-05, "MEAN_MOTION_DDOT": 0}, "tle": {"line1": "1 34790U 93036AAT 25343.17974146  .00002504  00000+0  10328-2 0  9996", "line2": "2 34790  74.0552 250.1156 0100743 312.5017 211.6898 14.24610447865223"}}, "geometry": {"type": "Point", "coordinates": [74.21810619778668, -20.118552951502103]}}, {"type": "Feature", "properties": {"norad_id": 34792, "name": "COSMOS 2251 DEB", "group": "cosmos-2251-debris", "lat": -46.24464454614961, "lon": 11.870146236337515, "alt_km": 705.9447099979716, "timestamp": "2025-12-10T05:46:14.221848+00:00", "meta": {"OBJECT_NAME": "COSMOS 2251 DEB", "OBJECT_ID": "1993-036AAV", "EPOCH": "2025-12-09T12:22:02.661312", "MEAN_MOTION": 14.55910931, "ECCENTRICITY": 0.00125292, "INCLINATION": 74.0177, "RA_OF_ASC_NODE": 175.8284, "ARG_OF_PERICENTER": 269.6711, "MEAN_ANOMALY": 119.962, "EPHEMERIS_TYPE": 0, "CLASSIFICATION_TYPE": "U", "NORAD_CAT_ID": 34792, "ELEMENT_SET_NO": 999, "REV_AT_EPOCH": 87603, "BSTAR": 0.0013597617, "MEAN_MOTION_DOT": 5.954e-05, "MEAN_MOTION_DDOT": 0}, "tle": {"line1": "1 34792U 93036AAV 25343.51530858  .00005954  00000+0  13598-2 0  9998", "line2": "2 34792  74.0177 175.8284 0012529 269.6711 119.9620 14.55910931876039"}}, "geometry": {"type": "Point", "coordinates": [11.870146236337515, -46.24464454614961]}}, {"type": "Feature", "properties": {"norad_id": 34793, "name": "COSMOS 2251 DEB", "group": "cosmos-2251-debris", "lat": 15.899105288087952, "lon": 70.29732138399972, "alt_km": 777.4989419506237, "timestamp": "2025-12-10T05:46:14.221858+00:00", "meta": {"OBJECT_NAME": "COSMOS 2251 DEB", "OBJECT_ID": "1993-036AAW", "EPOCH": "2025-12-09T13:08:47.028192", "MEAN_MOTION": 14.38636763, "ECCENTRICITY": 0.0050161, "INCLINATION": 74.0029, "RA_OF_ASC_NODE": 256.2636, "ARG_OF_PERICENTER": 51.219, "MEAN_ANOMALY": 125.5955, "EPHEMERIS_TYPE": 0, "CLASSIFICATION_TYPE": "U", "NORAD_CAT_ID": 34793, "ELEMENT_SET_NO": 999, "REV_AT_EPOCH": 87284, "BSTAR": 0.00046374, "MEAN_MOTION_DOT": 1.416e-05, "MEAN_MOTION_DDOT": 0}, "tle": {"line1": "1 34793U 93036AAW 25343.54776653  .00001416  00000+0  46374-3 0  9995", "line2": "2 34793  74.0029 256.2636 0050161  51.2190 125.5955 14.38636763872849"}}, "geometry": {"type": "Point", "coordinates": [70.29732138399972, 15.899105288087952]}}, {"type": "Feature", "properties": {"norad_id": 34796, "name": "COSMOS 2251 DEB", "group": "cosmos-2251-debris", "lat": 13.17458729309778, "lon": 37.18716641433772, "alt_km": 796.4442349685387, "timestamp": "2025-12-10T05:46:14.221868+00:00", "meta": {"OBJECT_NAME": "COSMOS 2251 DEB", "OBJECT_ID": "1993-036AAZ", "EPOCH": "2025-12-09T03:04:31.147392", "MEAN_MOTION": 14.48661522, "ECCENTRICITY": 0.01002341, "INCLINATION": 74.0291, "RA_OF_ASC_NODE": 223.1156, "ARG_OF_PERICENTER": 325.9533, "MEAN_ANOMALY": 162.1433, "EPHEMERIS_TYPE": 0, "CLASSIFICATION_TYPE": "U", "NORAD_CAT_ID": 34796, "ELEMENT_SET_NO": 999, "REV_AT_EPOCH": 87975, "BSTAR": 0.00086381205, "MEAN_MOTION_DOT": 3.438e-05, "MEAN_MOTION_DDOT": 0}, "tle": {"line1": "1 34796U 93036AAZ 25343.12813828  .00003438  00000+0  86381-3 0  9996", "line2": "2 34796  74.0291 223.1156 0100234 325.9533 162.1433 14.48661522879759"}}, "geometry": {"type": "Point", "coordinates": [37.18716641433772, 13.17458729309778]}}, {"type": "Feature", "properties": {"norad_id": 34797, "name": "COSMOS 2251 DEB", "group": "cosmos-2251-debris", "lat": -16.103074923605917, "lon": 99.88327456284195, "alt_km": 783.157725930424, "timestamp": "2025-12-10T05:46:14.221878+00:00", "meta": {"OBJECT_NAME": "COSMOS 2251 DEB", "OBJECT_ID": "1993-036ABA", "EPOCH": "2025-12-08T02:15:30.483648", "MEAN_MOTION": 14.42690241, "ECCENTRICITY": 0.00721111, "INCLINATION": 73.9779, "RA_OF_ASC_NODE": 108.638, "ARG_OF_PERICENTER": 222.8023, "MEAN_ANOMALY": 136.7506, "EPHEMERIS_TYPE": 0, "CLASSIFICATION_TYPE": "U", "NORAD_CAT_ID": 34797, "ELEMENT_SET_NO": 999, "REV_AT_EPOCH": 87348, "BSTAR": 0.0033221371, "MEAN_MOTION_DOT": 0.00011397, "MEAN_MOTION_DDOT": 0}, "tle": {"line1": "1 34797U 93036ABA 25342.09410282  .00011397  00000+0  33221-2 0  9996", "line2": "2 34797  73.9779 108.6380 0072111 222.8023 136.7506 14.42690241873482"}}, "geometry": {"type": "Point", "coordinates": [99.88327456284195, -16.103074923605917]}}, {"type": "Feature", "properties": {"norad_id": 34814, "name": "COSMOS 2251 DEB", "group": "cosmos-2251-debris", "lat": 18.42117827111448, "lon": -24.405241891970714, "alt_km": 806.4665186156471, "timestamp": "2025-12-10T05:46:14.221888+00:00", "meta": {"OBJECT_NAME": "COSMOS 2251 DEB", "OBJECT_ID": "1993-036ABD", "EPOCH": "2025-12-09T10:20:25.681920", "MEAN_MOTION": 14.36871417, "ECCENTRICITY": 0.00564237, "INCLINATION": 73.8962, "RA_OF_ASC_NODE": 331.5737, "ARG_OF_PERICENTER": 221.6641, "MEAN_ANOMALY": 291.2798, "EPHEMERIS_TYPE": 0, "CLASSIFICATION_TYPE": "U", "NORAD_CAT_ID": 34814, "ELEMENT_SET_NO": 999, "REV_AT_EPOCH": 87285, "BSTAR": 0.0012971818, "MEAN_MOTION_DOT": 3.881e-05, "MEAN_MOTION_DDOT": 0}, "tle": {"line1": "1 34814U 93036ABD 25343.43085280  .00003881  00000+0  12972-2 0  9990", "line2": "2 34814  73.8962 331.5737 0056423 221.6641 291.2798 14.36871417872858"}}, "geometry": {"type": "Point", "coordinates": [-24.405241891970714, 18.42117827111448]}}, {"type": "Feature", "properties": {"norad_id": 34815, "name": "COSMOS 2251 DEB", "group": "cosmos-2251-debris", "lat": 17.10359796511714, "lon": 61.658157229251, "alt_km": 672.175416413942, "timestamp": "2025-12-10T05:46:14.221900+00:00", "meta": {"OBJECT_NAME": "COSMOS 2251 DEB", "OBJECT_ID": "1993-036ABE", "EPOCH": "2025-12-09T11:10:12.352800", "MEAN_MOTION": 14.78241415, "ECCENTRICITY": 0.00588661, "INCLINATION": 74.0452, "RA_OF_ASC_NODE": 248.2294, "ARG_OF_PERICENTER": 318.1055, "MEAN_ANOMALY": 41.5622, "EPHEMERIS_TYPE": 0, "CLASSIFICATION_TYPE": "U", "NORAD_CAT_ID": 34815, "ELEMENT_SET_NO": 999, "REV_AT_EPOCH": 88579, "BSTAR": 0.0013749046, "MEAN_MOTION_DOT": 0.00010252, "MEAN_MOTION_DDOT": 0}, "tle": {"line1": "1 34815U 93036ABE 25343.46542075  .00010252  00000+0  13749-2 0  9997", "line2": "2 34815  74.0452 248.2294 0058866 318.1055  41.5622 14.78241415885796"}}, "geometry": {"type": "Point", "coordinates": [61.658157229251, 17.10359796511714]}}, {"type": "Feature", "properties": {"norad_id": 34816, "name": "COSMOS 2251 DEB", "group": "cosmos-2251-debris", "lat": 65.9129132758811, "lon": -73.08614468703698, "alt_km": 1092.1752352562198, "timestamp": "2025-12-10T05:46:14.221910+00:00", "meta": {"OBJECT_NAME": "COSMOS 2251 DEB", "OBJECT_ID": "1993-036ABF", "EPOCH": "2025-12-06T22:26:27.336768", "MEAN_MOTION": 13.5829822, "ECCENTRICITY": 0.03736298, "INCLINATION": 73.886, "RA_OF_ASC_NODE": 152.5929, "ARG_OF_PERICENTER": 218.068, "MEAN_ANOMALY": 297.1187, "EPHEMERIS_TYPE": 0, "CLASSIFICATION_TYPE": "U", "NORAD_CAT_ID": 34816, "ELEMENT_SET_NO": 999, "REV_AT_EPOCH": 82704, "BSTAR": 0.0017880706, "MEAN_MOTION_DOT": 2.026e-05, "MEAN_MOTION_DDOT": 0}, "tle": {"line1": "1 34816U 93036ABF 25340.93503862  .00002026  00000+0  17881-2 0  9999", "line2": "2 34816  73.8860 152.5929 0373629 218.0680 297.1187 13.58298220827040"}}, "geometry": {"type": "Point", "coordinates": [-73.08614468703698, 65.9129132758811]}}, {"type": "Feature", "properties": {"norad_id": 34818, "name": "COSMOS 2251 DEB", "group": "cosmos-2251-debris", "lat": 74.02333657026641, "lon": 32.566379742396684, "alt_km": 755.9092073504526, "timestamp": "2025-12-10T05:46:14.221921+00:00", "meta": {"OBJECT_NAME": "COSMOS 2251 DEB", "OBJECT_ID": "1993-036ABH", "EPOCH": "2025-12-09T21:08:24.716832", "MEAN_MOTION": 14.36961756, "ECCENTRICITY": 0.0024033, "INCLINATION": 74.0356, "RA_OF_ASC_NODE": 302.1955, "ARG_OF_PERICENTER": 18.5882, "MEAN_ANOMALY": 11.9439, "EPHEMERIS_TYPE": 0, "CLASSIFICATION_TYPE": "U", "NORAD_CAT_ID": 34818, "ELEMENT_SET_NO": 999, "REV_AT_EPOCH": 87329, "BSTAR": 0.00041097, "MEAN_MOTION_DOT": 1.195e-05, "MEAN_MOTION_DDOT": 0}, "tle": {"line1": "1 34818U 93036ABH 25343.88084163  .00001195  00000+0  41097-3 0  9999", "line2": "2 34818  74.0356 302.1955 0024033  18.5882  11.9439 14.36961756873294"}}, "geometry": {"type": "Point", "coordinates": [32.566379742396684, 74.02333657026641]}}]}